{
  "type": "FeatureCollection",
  "features": [
    {
      "type": "Feature",
      "properties": {
        "norad_id": 38857,
        "name": "GSAT0103 (GALILEO-FM3)",
        "group": "gnss",
        "lat": 53.021529070574786,
        "lon": -138.57807005217478,
        "alt_km": 23224.64899417971,
        "timestamp": "2025-12-26T14:28:47.944591+00:00",
        "meta_object_name": "GSAT0103 (GALILEO-FM3)",
        "meta_object_id": "2012-055A",
        "meta_epoch": "2025-12-22T21:54:43.252704",
        "meta_mean_motion": 1.70473351,
        "meta_eccentricity": 0.0002995,
        "meta_inclination": 55.698,
        "meta_ra_of_asc_node": 106.3873,
        "meta_arg_of_pericenter": 269.858,
        "meta_mean_anomaly": 90.0891,
        "meta_ephemeris_type": 0,
        "meta_classification_type": "U",
        "meta_norad_cat_id": 38857,
        "meta_element_set_no": 999,
        "meta_rev_at_epoch": 8200,
        "meta_bstar": 0,
        "meta_mean_motion_dot": 1e-07,
        "meta_mean_motion_ddot": 0,
        "tle_line1": "1 38857U 12055A   25356.91300061  .00000010  00000+0  00000+0 0  9994",
        "tle_line2": "2 38857  55.6980 106.3873 0002995 269.8580  90.0891  1.70473351 82005"
      },
      "geometry": {
        "type": "Point",
        "coordinates": [
          -138.57807005217478,
          53.021529070574786
        ]
      }
    },
    {
      "type": "Feature",
      "properties": {
        "norad_id": 38953,
        "name": "BEIDOU-2 G6 (C02)",
        "group": "gnss",
        "lat": -2.4912914384997116,
        "lon": 36.598339089887915,
        "alt_km": 35756.15868359858,
        "timestamp": "2025-12-26T14:28:47.944603+00:00",
        "meta_object_name": "BEIDOU-2 G6 (C02)",
        "meta_object_id": "2012-059A",
        "meta_epoch": "2025-12-25T22:54:51.748704",
        "meta_mean_motion": 1.00274748,
        "meta_eccentricity": 0.00078835,
        "meta_inclination": 3.9809,
        "meta_ra_of_asc_node": 75.381,
        "meta_arg_of_pericenter": 293.9359,
        "meta_mean_anomaly": 153.0475,
        "meta_ephemeris_type": 0,
        "meta_classification_type": "U",
        "meta_norad_cat_id": 38953,
        "meta_element_set_no": 999,
        "meta_rev_at_epoch": 4817,
        "meta_bstar": 0,
        "meta_mean_motion_dot": -1.55e-06,
        "meta_mean_motion_ddot": 0,
        "tle_line1": "1 38953U 12059A   25359.95476561 -.00000155  00000+0  00000+0 0  9992",
        "tle_line2": "2 38953   3.9809  75.3810 0007883 293.9359 153.0475  1.00274748 48177"
      },
      "geometry": {
        "type": "Point",
        "coordinates": [
          36.598339089887915,
          -2.4912914384997116
        ]
      }
    },
    {
      "type": "Feature",
      "properties": {
        "norad_id": 38977,
        "name": "LUCH 5B (SDCM/PRN 125)",
        "group": "gnss",
        "lat": -9.145283186883702,
        "lon": -64.07796324696528,
        "alt_km": 35768.74603507362,
        "timestamp": "2025-12-26T14:28:47.944615+00:00",
        "meta_object_name": "LUCH 5B (SDCM/PRN 125)",
        "meta_object_id": "2012-061A",
        "meta_epoch": "2025-12-24T23:17:34.998144",
        "meta_mean_motion": 1.00271775,
        "meta_eccentricity": 0.000662,
        "meta_inclination": 10.1058,
        "meta_ra_of_asc_node": 51.5875,
        "meta_arg_of_pericenter": 196.0598,
        "meta_mean_anomaly": 179.1583,
        "meta_ephemeris_type": 0,
        "meta_classification_type": "U",
        "meta_norad_cat_id": 38977,
        "meta_element_set_no": 999,
        "meta_rev_at_epoch": 4786,
        "meta_bstar": 0,
        "meta_mean_motion_dot": -1.21e-06,
        "meta_mean_motion_ddot": 0,
        "tle_line1": "1 38977U 12061A   25358.97054396 -.00000121  00000+0  00000+0 0  9993",
        "tle_line2": "2 38977  10.1058  51.5875 0006620 196.0598 179.1583  1.00271775 47863"
      },
      "geometry": {
        "type": "Point",
        "coordinates": [
          -64.07796324696528,
          -9.145283186883702
        ]
      }
    },
    {
      "type": "Feature",
      "properties": {
        "norad_id": 39155,
        "name": "COSMOS 2485 (747)",
        "group": "gnss",
        "lat": -57.41739891641126,
        "lon": 33.48672138198472,
        "alt_km": 19105.440633763086,
        "timestamp": "2025-12-26T14:28:47.944627+00:00",
        "meta_object_name": "COSMOS 2485 (747)",
        "meta_object_id": "2013-019A",
        "meta_epoch": "2025-12-25T06:49:20.356032",
        "meta_mean_motion": 2.13103209,
        "meta_eccentricity": 0.00250108,
        "meta_inclination": 65.3197,
        "meta_ra_of_asc_node": 79.4456,
        "meta_arg_of_pericenter": 230.5627,
        "meta_mean_anomaly": 129.2639,
        "meta_ephemeris_type": 0,
        "meta_classification_type": "U",
        "meta_norad_cat_id": 39155,
        "meta_element_set_no": 999,
        "meta_rev_at_epoch": 9857,
        "meta_bstar": 0,
        "meta_mean_motion_dot": 0,
        "meta_mean_motion_ddot": 0,
        "tle_line1": "1 39155U 13019A   25359.28426338  .00000000  00000+0  00000+0 0  9995",
        "tle_line2": "2 39155  65.3197  79.4456 0025010 230.5627 129.2639  2.13103209 98576"
      },
      "geometry": {
        "type": "Point",
        "coordinates": [
          33.48672138198472,
          -57.41739891641126
        ]
      }
    },
    {
      "type": "Feature",
      "properties": {
        "norad_id": 39166,
        "name": "GPS BIIF-4  (PRN 27)",
        "group": "gnss",
        "lat": -40.23839301710492,
        "lon": -120.8757902654011,
        "alt_km": 20252.840115517767,
        "timestamp": "2025-12-26T14:28:47.944658+00:00",
        "meta_object_name": "GPS BIIF-4  (PRN 27)",
        "meta_object_id": "2013-023A",
        "meta_epoch": "2025-12-24T04:22:45.402816",
        "meta_mean_motion": 2.00564584,
        "meta_eccentricity": 0.01386043,
        "meta_inclination": 54.6422,
        "meta_ra_of_asc_node": 276.1031,
        "meta_arg_of_pericenter": 48.7593,
        "meta_mean_anomaly": 312.474,
        "meta_ephemeris_type": 0,
        "meta_classification_type": "U",
        "meta_norad_cat_id": 39166,
        "meta_element_set_no": 999,
        "meta_rev_at_epoch": 9237,
        "meta_bstar": 0,
        "meta_mean_motion_dot": -1.6e-07,
        "meta_mean_motion_ddot": 0,
        "tle_line1": "1 39166U 13023A   25358.18246994 -.00000016  00000+0  00000+0 0  9996",
        "tle_line2": "2 39166  54.6422 276.1031 0138604  48.7593 312.4740  2.00564584 92374"
      },
      "geometry": {
        "type": "Point",
        "coordinates": [
          -120.8757902654011,
          -40.23839301710492
        ]
      }
    },
    {
      "type": "Feature",
      "properties": {
        "norad_id": 39199,
        "name": "IRNSS-1A",
        "group": "gnss",
        "lat": -29.6534691169826,
        "lon": 13.036390655769567,
        "alt_km": 35786.439879778336,
        "timestamp": "2025-12-26T14:28:47.944671+00:00",
        "meta_object_name": "IRNSS-1A",
        "meta_object_id": "2013-034A",
        "meta_epoch": "2025-12-24T18:29:47.559840",
        "meta_mean_motion": 1.00273605,
        "meta_eccentricity": 0.00238143,
        "meta_inclination": 35.3368,
        "meta_ra_of_asc_node": 66.3779,
        "meta_arg_of_pericenter": 212.7296,
        "meta_mean_anomaly": 146.6998,
        "meta_ephemeris_type": 0,
        "meta_classification_type": "U",
        "meta_norad_cat_id": 39199,
        "meta_element_set_no": 999,
        "meta_rev_at_epoch": 4561,
        "meta_bstar": 0,
        "meta_mean_motion_dot": 7.9e-07,
        "meta_mean_motion_ddot": 0,
        "tle_line1": "1 39199U 13034A   25358.77068935  .00000079  00000+0  00000+0 0  9994",
        "tle_line2": "2 39199  35.3368  66.3779 0023814 212.7296 146.6998  1.00273605 45619"
      },
      "geometry": {
        "type": "Point",
        "coordinates": [
          13.036390655769567,
          -29.6534691169826
        ]
      }
    },
    {
      "type": "Feature",
      "properties": {
        "norad_id": 39533,
        "name": "GPS BIIF-5  (PRN 30)",
        "group": "gnss",
        "lat": -36.52225790946146,
        "lon": 123.24425066557725,
        "alt_km": 20172.769382623694,
        "timestamp": "2025-12-26T14:28:47.944683+00:00",
        "meta_object_name": "GPS BIIF-5  (PRN 30)",
        "meta_object_id": "2014-008A",
        "meta_epoch": "2025-12-23T16:16:25.020768",
        "meta_mean_motion": 2.00548852,
        "meta_eccentricity": 0.00795532,
        "meta_inclination": 53.5993,
        "meta_ra_of_asc_node": 156.4877,
        "meta_arg_of_pericenter": 225.9161,
        "meta_mean_anomaly": 133.4108,
        "meta_ephemeris_type": 0,
        "meta_classification_type": "U",
        "meta_norad_cat_id": 39533,
        "meta_element_set_no": 999,
        "meta_rev_at_epoch": 8616,
        "meta_bstar": 0,
        "meta_mean_motion_dot": 8.2e-07,
        "meta_mean_motion_ddot": 0,
        "tle_line1": "1 39533U 14008A   25357.67806737  .00000082  00000+0  00000+0 0  9990",
        "tle_line2": "2 39533  53.5993 156.4877 0079553 225.9161 133.4108  2.00548852 86167"
      },
      "geometry": {
        "type": "Point",
        "coordinates": [
          123.24425066557725,
          -36.52225790946146
        ]
      }
    }
  ]
}